{"type": "FeatureCollection", "features": [ {"type": "Feature", "properties": {"norad_id": 40223, "name": "COSMOS 2251 DEB", "group": "cosmos-2251-debris", "lat": -19.213093733873503, "lon": -98.02573078681205, "alt_km": 557.0492651436844, "timestamp": "2025-12-18T19:29:52.940525+00:00", "meta": {"OBJECT_NAME": "COSMOS 2251 DEB", "OBJECT_ID": "1993-036BVC", "EPOCH": "2025-12-16T06:05:42.901728", "MEAN_MOTION": 15.04017245, "ECCENTRICITY": 0.00151313, "INCLINATION": 73.9375, "RA_OF_ASC_NODE": 81.4737, "ARG_OF_PERICENTER": 287.2028, "MEAN_ANOMALY": 105.0934, "EPHEMERIS_TYPE": 0, "CLASSIFICATION_TYPE": "U", "NORAD_CAT_ID": 40223, "ELEMENT_SET_NO": 999, "REV_AT_EPOCH": 59427, "BSTAR": 0.0031787319, "MEAN_MOTION_DOT": 0.00044299, "MEAN_MOTION_DDOT": 0}, "tle": {"line1": "1 40223U 93036BVC 25350.25396877  .00044299  00000+0  31787-2 0  9999", "line2": "2 40223  73.9375  81.4737 0015131 287.2028 105.0934 15.04017245594275"}}, "geometry": {"type": "Point", "coordinates": [-98.02573078681205, -19.213093733873503]}}, {"type": "Feature", "properties": {"norad_id": 40228, "name": "COSMOS 2251 DEB", "group": "cosmos-2251-debris", "lat": -5.608105943745686, "lon": 70.91230430517179, "alt_km": 768.0775912215731, "timestamp": "2025-12-18T19:29:52.940535+00:00", "meta": {"OBJECT_NAME": "COSMOS 2251 DEB", "OBJECT_ID": "1993-036BVH", "EPOCH": "2025-12-16T12:28:36.365376", "MEAN_MOTION": 14.41001864, "ECCENTRICITY": 0.00241346, "INCLINATION": 74.0547, "RA_OF_ASC_NODE": 253.54, "ARG_OF_PERICENTER": 314.4543, "MEAN_ANOMALY": 223.4241, "EPHEMERIS_TYPE": 0, "CLASSIFICATION_TYPE": "U", "NORAD_CAT_ID": 40228, "ELEMENT_SET_NO": 999, "REV_AT_EPOCH": 58975, "BSTAR": 0.00028514668, "MEAN_MOTION_DOT": 8.93e-06, "MEAN_MOTION_DDOT": 0}, "tle": {"line1": "1 40228U 93036BVH 25350.51986534  .00000893  00000+0  28515-3 0  9996", "line2": "2 40228  74.0547 253.5400 0024134 314.4543 223.4241 14.41001864589753"}}, "geometry": {"type": "Point", "coordinates": [70.91230430517179, -5.608105943745686]}}, {"type": "Feature", "properties": {"norad_id": 40230, "name": "COSMOS 2251 DEB", "group": "cosmos-2251-debris", "lat": 9.064741797251415, "lon": 32.887468427713735, "alt_km": 731.9162151210621, "timestamp": "2025-12-18T19:29:52.940545+00:00", "meta": {"OBJECT_NAME": "COSMOS 2251 DEB", "OBJECT_ID": "1993-036BVK", "EPOCH": "2025-12-14T22:00:49.266432", "MEAN_MOTION": 14.49332961, "ECCENTRICITY": 0.00191764, "INCLINATION": 74.0428, "RA_OF_ASC_NODE": 222.8045, "ARG_OF_PERICENTER": 280.5439, "MEAN_ANOMALY": 94.8076, "EPHEMERIS_TYPE": 0, "CLASSIFICATION_TYPE": "U", "NORAD_CAT_ID": 40230, "ELEMENT_SET_NO": 999, "REV_AT_EPOCH": 59003, "BSTAR": 0.00050113522, "MEAN_MOTION_DOT": 1.891e-05, "MEAN_MOTION_DDOT": 0}, "tle": {"line1": "1 40230U 93036BVK 25348.91723688  .00001891  00000+0  50114-3 0  9998", "line2": "2 40230  74.0428 222.8045 0019176 280.5439  94.8076 14.49332961590037"}}, "geometry": {"type": "Point", "coordinates": [32.887468427713735, 9.064741797251415]}}, {"type": "Feature", "properties": {"norad_id": 40233, "name": "COSMOS 2251 DEB", "group": "cosmos-2251-debris", "lat": -13.389484010526479, "lon": -84.58627134364842, "alt_km": 674.3246388394082, "timestamp": "2025-12-18T19:29:52.940555+00:00", "meta": {"OBJECT_NAME": "COSMOS 2251 DEB", "OBJECT_ID": "1993-036BVN", "EPOCH": "2025-12-16T00:45:52.214112", "MEAN_MOTION": 14.58458772, "ECCENTRICITY": 0.0044987, "INCLINATION": 73.9406, "RA_OF_ASC_NODE": 96.8035, "ARG_OF_PERICENTER": 171.0622, "MEAN_ANOMALY": 189.1354, "EPHEMERIS_TYPE": 0, "CLASSIFICATION_TYPE": "U", "NORAD_CAT_ID": 40233, "ELEMENT_SET_NO": 999, "REV_AT_EPOCH": 59185, "BSTAR": 0.00091306486, "MEAN_MOTION_DOT": 4.268e-05, "MEAN_MOTION_DDOT": 0}, "tle": {"line1": "1 40233U 93036BVN 25350.03185433  .00004268  00000+0  91306-3 0  9996", "line2": "2 40233  73.9406  96.8035 0044987 171.0622 189.1354 14.58458772591855"}}, "geometry": {"type": "Point", "coordinates": [-84.58627134364842, -13.389484010526479]}}, {"type": "Feature", "properties": {"norad_id": 40236, "name": "COSMOS 2251 DEB", "group": "cosmos-2251-debris", "lat": -22.18492009022051, "lon": -38.887131035813326, "alt_km": 1570.9000178893175, "timestamp": "2025-12-18T19:29:52.940565+00:00", "meta": {"OBJECT_NAME": "COSMOS 2251 DEB", "OBJECT_ID": "1993-036BVR", "EPOCH": "2025-12-07T17:52:23.026080", "MEAN_MOTION": 13.24639967, "ECCENTRICITY": 0.05366128, "INCLINATION": 73.5349, "RA_OF_ASC_NODE": 151.6266, "ARG_OF_PERICENTER": 32.3576, "MEAN_ANOMALY": 330.9258, "EPHEMERIS_TYPE": 0, "CLASSIFICATION_TYPE": "U", "NORAD_CAT_ID": 40236, "ELEMENT_SET_NO": 999, "REV_AT_EPOCH": 53558, "BSTAR": 0.0015786255, "MEAN_MOTION_DOT": 1.455e-05, "MEAN_MOTION_DDOT": 0}, "tle": {"line1": "1 40236U 93036BVR 25341.74471095  .00001455  00000+0  15786-2 0  9991", "line2": "2 40236  73.5349 151.6266 0536612  32.3576 330.9258 13.24639967535580"}}, "geometry": {"type": "Point", "coordinates": [-38.887131035813326, -22.18492009022051]}}, {"type": "Feature", "properties": {"norad_id": 40238, "name": "COSMOS 2251 DEB", "group": "cosmos-2251-debris", "lat": -53.967704539345696, "lon": 31.026547470023974, "alt_km": 1092.9976980652664, "timestamp": "2025-12-18T19:29:52.940575+00:00", "meta": {"OBJECT_NAME": "COSMOS 2251 DEB", "OBJECT_ID": "1993-036BVT", "EPOCH": "2025-12-13T22:00:17.688960", "MEAN_MOTION": 13.25118761, "ECCENTRICITY": 0.05494159, "INCLINATION": 73.9889, "RA_OF_ASC_NODE": 61.7905, "ARG_OF_PERICENTER": 33.3831, "MEAN_ANOMALY": 330.0665, "EPHEMERIS_TYPE": 0, "CLASSIFICATION_TYPE": "U", "NORAD_CAT_ID": 40238, "ELEMENT_SET_NO": 999, "REV_AT_EPOCH": 54052, "BSTAR": 0.0015955991, "MEAN_MOTION_DOT": 1.546e-05, "MEAN_MOTION_DDOT": 0}, "tle": {"line1": "1 40238U 93036BVT 25347.91687140  .00001546  00000+0  15956-2 0  9998", "line2": "2 40238  73.9889  61.7905 0549415  33.3831 330.0665 13.25118761540524"}}, "geometry": {"type": "Point", "coordinates": [31.026547470023974, -53.967704539345696]}}, {"type": "Feature", "properties": {"norad_id": 40239, "name": "COSMOS 2251 DEB", "group": "cosmos-2251-debris", "lat": -44.54663314386631, "lon": 100.58178158135496, "alt_km": 743.1495403995059, "timestamp": "2025-12-18T19:29:52.940585+00:00", "meta": {"OBJECT_NAME": "COSMOS 2251 DEB", "OBJECT_ID": "1993-036BVU", "EPOCH": "2025-12-10T14:12:54.993024", "MEAN_MOTION": 14.6197936, "ECCENTRICITY": 0.0084758, "INCLINATION": 74.0316, "RA_OF_ASC_NODE": 279.9471, "ARG_OF_PERICENTER": 31.8637, "MEAN_ANOMALY": 148.8031, "EPHEMERIS_TYPE": 0, "CLASSIFICATION_TYPE": "U", "NORAD_CAT_ID": 40239, "ELEMENT_SET_NO": 999, "REV_AT_EPOCH": 59579, "BSTAR": 0.00074089, "MEAN_MOTION_DOT": 3.879e-05, "MEAN_MOTION_DDOT": 0}, "tle": {"line1": "1 40239U 93036BVU 25344.59230316  .00003879  00000+0  74089-3 0  9993", "line2": "2 40239  74.0316 279.9471 0084758  31.8637 148.8031 14.61979360595796"}}, "geometry": {"type": "Point", "coordinates": [100.58178158135496, -44.54663314386631]}}, {"type": "Feature", "properties": {"norad_id": 40792, "name": "COSMOS 2251 DEB", "group": "cosmos-2251-debris", "lat": 25.41783833873774, "lon": -152.07278414312876, "alt_km": 656.9266492178131, "timestamp": "2025-12-18T19:29:52.940596+00:00", "meta": {"OBJECT_NAME": "COSMOS 2251 DEB", "OBJECT_ID": "1993-036BVV", "EPOCH": "2025-12-13T21:48:53.616096", "MEAN_MOTION": 14.67590278, "ECCENTRICITY": 0.00153774, "INCLINATION": 74.0462, "RA_OF_ASC_NODE": 45.2013, "ARG_OF_PERICENTER": 149.8992, "MEAN_ANOMALY": 27.0176, "EPHEMERIS_TYPE": 0, "CLASSIFICATION_TYPE": "U", "NORAD_CAT_ID": 40792, "ELEMENT_SET_NO": 999, "REV_AT_EPOCH": 63201, "BSTAR": 0.0011407186, "MEAN_MOTION_DOT": 6.465e-05, "MEAN_MOTION_DDOT": 0}, "tle": {"line1": "1 40792U 93036BVV 25347.90895389  .00006465  00000+0  11407-2 0  9990", "line2": "2 40792  74.0462  45.2013 0015377 149.8992  27.0176 14.67590278632011"}}, "geometry": {"type": "Point", "coordinates": [-152.07278414312876, 25.41783833873774]}}, {"type": "Feature", "properties": {"norad_id": 40794, "name": "COSMOS 2251 DEB", "group": "cosmos-2251-debris", "lat": 32.404233462032906, "lon": 122.49380797448075, "alt_km": 590.3697912039779, "timestamp": "2025-12-18T19:29:52.940606+00:00", "meta": {"OBJECT_NAME": "COSMOS 2251 DEB", "OBJECT_ID": "1993-036BVX", "EPOCH": "2025-12-13T15:37:41.141568", "MEAN_MOTION": 14.93159868, "ECCENTRICITY": 0.00107848, "INCLINATION": 73.9763, "RA_OF_ASC_NODE": 122.399, "ARG_OF_PERICENTER": 261.0962, "MEAN_ANOMALY": 116.104, "EPHEMERIS_TYPE": 0, "CLASSIFICATION_TYPE": "U", "NORAD_CAT_ID": 40794, "ELEMENT_SET_NO": 999, "REV_AT_EPOCH": 61938, "BSTAR": 0.0047306735, "MEAN_MOTION_DOT": 0.00049759, "MEAN_MOTION_DDOT": 0}, "tle": {"line1": "1 40794U 93036BVX 25347.65117062  .00049759  00000+0  47307-2 0  9990", "line2": "2 40794  73.9763 122.3990 0010784 261.0962 116.1040 14.93159868619387"}}, "geometry": {"type": "Point", "coordinates": [122.49380797448075, 32.404233462032906]}}, {"type": "Feature", "properties": {"norad_id": 40796, "name": "COSMOS 2251 DEB", "group": "cosmos-2251-debris", "lat": 0.44174843588303303, "lon": -49.949964034168474, "alt_km": 623.5470861757758, "timestamp": "2025-12-18T19:29:52.940615+00:00", "meta": {"OBJECT_NAME": "COSMOS 2251 DEB", "OBJECT_ID": "1993-036BVZ", "EPOCH": "2025-12-18T03:16:26.396832", "MEAN_MOTION": 14.81774084, "ECCENTRICITY": 0.00561198, "INCLINATION": 74.0119, "RA_OF_ASC_NODE": 131.5134, "ARG_OF_PERICENTER": 267.2185, "MEAN_ANOMALY": 268.2913, "EPHEMERIS_TYPE": 0, "CLASSIFICATION_TYPE": "U", "NORAD_CAT_ID": 40796, "ELEMENT_SET_NO": 999, "REV_AT_EPOCH": 76238, "BSTAR": 0.00073722049, "MEAN_MOTION_DOT": 5.947e-05, "MEAN_MOTION_DDOT": 0}, "tle": {"line1": "1 40796U 93036BVZ 25352.13641663  .00005947  00000+0  73722-3 0  9992", "line2": "2 40796  74.0119 131.5134 0056119 267.2185 268.2913 14.81774084762382"}}, "geometry": {"type": "Point", "coordinates": [-49.949964034168474, 0.44174843588303303]}}]}